{
  "type": "FeatureCollection",
  "features": [
    {
      "type": "Feature",
      "properties": {
        "norad_id": 66800,
        "name": "STARLINK-35996",
        "group": "last-30-days",
        "lat": -11.737576057766564,
        "lon": 163.205469294019,
        "alt_km": 416.0300121833461,
        "timestamp": "2025-12-25T09:48:51.005434+00:00",
        "meta_object_name": "STARLINK-35996",
        "meta_object_id": "2025-278K",
        "meta_epoch": "2025-12-25T04:00:01.998720",
        "meta_mean_motion": 15.50535397,
        "meta_eccentricity": 0.0001669,
        "meta_inclination": 43.0003,
        "meta_ra_of_asc_node": 177.506,
        "meta_arg_of_pericenter": 263.732,
        "meta_mean_anomaly": 165.2132,
        "meta_ephemeris_type": 0,
        "meta_classification_type": "U",
        "meta_norad_cat_id": 66800,
        "meta_element_set_no": 999,
        "meta_rev_at_epoch": 474,
        "meta_bstar": 0.00051508,
        "meta_mean_motion_dot": 0.00029945,
        "meta_mean_motion_ddot": 0,
        "tle_line1": "1 66800U 25278K   25359.16668980  .00029945  00000+0  51508-3 0  9992",
        "tle_line2": "2 66800  43.0003 177.5060 0001669 263.7320 165.2132 15.50535397  4741"
      },
      "geometry": {
        "type": "Point",
        "coordinates": [
          163.205469294019,
          -11.737576057766564
        ]
      }
    },
    {
      "type": "Feature",
      "properties": {
        "norad_id": 66801,
        "name": "STARLINK-36080",
        "group": "last-30-days",
        "lat": -5.28593881343659,
        "lon": 170.36554012072276,
        "alt_km": 415.3104143486753,
        "timestamp": "2025-12-25T09:48:51.005446+00:00",
        "meta_object_name": "STARLINK-36080",
        "meta_object_id": "2025-278L",
        "meta_epoch": "2025-12-25T04:00:01.998720",
        "meta_mean_motion": 15.50606332,
        "meta_eccentricity": 0.0002117,
        "meta_inclination": 43.0002,
        "meta_ra_of_asc_node": 177.4808,
        "meta_arg_of_pericenter": 268.8988,
        "meta_mean_anomaly": 169.6006,
        "meta_ephemeris_type": 0,
        "meta_classification_type": "U",
        "meta_norad_cat_id": 66801,
        "meta_element_set_no": 999,
        "meta_rev_at_epoch": 495,
        "meta_bstar": -0.0014711,
        "meta_mean_motion_dot": -0.00085791,
        "meta_mean_motion_ddot": 0,
        "tle_line1": "1 66801U 25278L   25359.16668980 -.00085791  00000+0 -14711-2 0  9990",
        "tle_line2": "2 66801  43.0002 177.4808 0002117 268.8988 169.6006 15.50606332  4954"
      },
      "geometry": {
        "type": "Point",
        "coordinates": [
          170.36554012072276,
          -5.28593881343659
        ]
      }
    },
    {
      "type": "Feature",
      "properties": {
        "norad_id": 66802,
        "name": "STARLINK-35604",
        "group": "last-30-days",
        "lat": -13.001575655549184,
        "lon": 161.7468440184157,
        "alt_km": 415.83798728383226,
        "timestamp": "2025-12-25T09:48:51.005457+00:00",
        "meta_object_name": "STARLINK-35604",
        "meta_object_id": "2025-278M",
        "meta_epoch": "2025-12-25T04:00:01.998720",
        "meta_mean_motion": 15.50605824,
        "meta_eccentricity": 0.000203,
        "meta_inclination": 43.0002,
        "meta_ra_of_asc_node": 177.5104,
        "meta_arg_of_pericenter": 271.7791,
        "meta_mean_anomaly": 155.2169,
        "meta_ephemeris_type": 0,
        "meta_classification_type": "U",
        "meta_norad_cat_id": 66802,
        "meta_element_set_no": 999,
        "meta_rev_at_epoch": 495,
        "meta_bstar": -0.0014095,
        "meta_mean_motion_dot": -0.00082248,
        "meta_mean_motion_ddot": 0,
        "tle_line1": "1 66802U 25278M   25359.16668980 -.00082248  00000+0 -14095-2 0  9990",
        "tle_line2": "2 66802  43.0002 177.5104 0002030 271.7791 155.2169 15.50605824  4950"
      },
      "geometry": {
        "type": "Point",
        "coordinates": [
          161.7468440184157,
          -13.001575655549184
        ]
      }
    },
    {
      "type": "Feature",
      "properties": {
        "norad_id": 66803,
        "name": "STARLINK-35565",
        "group": "last-30-days",
        "lat": -21.35649289486221,
        "lon": 151.31553201066757,
        "alt_km": 435.3822956637687,
        "timestamp": "2025-12-25T09:48:51.005467+00:00",
        "meta_object_name": "STARLINK-35565",
        "meta_object_id": "2025-278N",
        "meta_epoch": "2025-12-25T04:00:01.998720",
        "meta_mean_motion": 15.45208657,
        "meta_eccentricity": 0.0001839,
        "meta_inclination": 43.0007,
        "meta_ra_of_asc_node": 177.5298,
        "meta_arg_of_pericenter": 275.6036,
        "meta_mean_anomaly": 143.5596,
        "meta_ephemeris_type": 0,
        "meta_classification_type": "U",
        "meta_norad_cat_id": 66803,
        "meta_element_set_no": 999,
        "meta_rev_at_epoch": 504,
        "meta_bstar": -0.048206,
        "meta_mean_motion_dot": -0.02080744,
        "meta_mean_motion_ddot": 0,
        "tle_line1": "1 66803U 25278N   25359.16668980 -.02080744  00000+0 -48206-1 0  9992",
        "tle_line2": "2 66803  43.0007 177.5298 0001839 275.6036 143.5596 15.45208657  5043"
      },
      "geometry": {
        "type": "Point",
        "coordinates": [
          151.31553201066757,
          -21.35649289486221
        ]
      }
    },
    {
      "type": "Feature",
      "properties": {
        "norad_id": 66804,
        "name": "STARLINK-36038",
        "group": "last-30-days",
        "lat": -17.121959038734555,
        "lon": 156.80659907769402,
        "alt_km": 431.09941122821147,
        "timestamp": "2025-12-25T09:48:51.005479+00:00",
        "meta_object_name": "STARLINK-36038",
        "meta_object_id": "2025-278P",
        "meta_epoch": "2025-12-25T04:00:01.998720",
        "meta_mean_motion": 15.46407474,
        "meta_eccentricity": 0.0001733,
        "meta_inclination": 43.0002,
        "meta_ra_of_asc_node": 177.5183,
        "meta_arg_of_pericenter": 278.0579,
        "meta_mean_anomaly": 146.6908,
        "meta_ephemeris_type": 0,
        "meta_classification_type": "U",
        "meta_norad_cat_id": 66804,
        "meta_element_set_no": 999,
        "meta_rev_at_epoch": 495,
        "meta_bstar": -0.039176,
        "meta_mean_motion_dot": -0.01763489,
        "meta_mean_motion_ddot": 0,
        "tle_line1": "1 66804U 25278P   25359.16668980 -.01763489  00000+0 -39176-1 0  9992",
        "tle_line2": "2 66804  43.0002 177.5183 0001733 278.0579 146.6908 15.46407474  4953"
      },
      "geometry": {
        "type": "Point",
        "coordinates": [
          156.80659907769402,
          -17.121959038734555
        ]
      }
    },
    {
      "type": "Feature",
      "properties": {
        "norad_id": 66805,
        "name": "STARLINK-36049",
        "group": "last-30-days",
        "lat": -8.269747617418796,
        "lon": 167.1017268116264,
        "alt_km": 422.8176426791115,
        "timestamp": "2025-12-25T09:48:51.005489+00:00",
        "meta_object_name": "STARLINK-36049",
        "meta_object_id": "2025-278Q",
        "meta_epoch": "2025-12-25T04:00:01.998720",
        "meta_mean_motion": 15.49202925,
        "meta_eccentricity": 0.0001883,
        "meta_inclination": 43.0001,
        "meta_ra_of_asc_node": 177.4881,
        "meta_arg_of_pericenter": 274.7661,
        "meta_mean_anomaly": 161.019,
        "meta_ephemeris_type": 0,
        "meta_classification_type": "U",
        "meta_norad_cat_id": 66805,
        "meta_element_set_no": 999,
        "meta_rev_at_epoch": 495,
        "meta_bstar": -0.042105,
        "meta_mean_motion_dot": -0.02089729,
        "meta_mean_motion_ddot": 0,
        "tle_line1": "1 66805U 25278Q   25359.16668980 -.02089729  00000+0 -42105-1 0  9998",
        "tle_line2": "2 66805  43.0001 177.4881 0001883 274.7661 161.0190 15.49202925  4959"
      },
      "geometry": {
        "type": "Point",
        "coordinates": [
          167.1017268116264,
          -8.269747617418796
        ]
      }
    },
    {
      "type": "Feature",
      "properties": {
        "norad_id": 66806,
        "name": "STARLINK-36069",
        "group": "last-30-days",
        "lat": -7.87545200585875,
        "lon": 167.53701875755723,
        "alt_km": 415.50042340613254,
        "timestamp": "2025-12-25T09:48:51.005499+00:00",
        "meta_object_name": "STARLINK-36069",
        "meta_object_id": "2025-278R",
        "meta_epoch": "2025-12-25T04:00:01.998720",
        "meta_mean_motion": 15.50605431,
        "meta_eccentricity": 0.0002184,
        "meta_inclination": 43.0002,
        "meta_ra_of_asc_node": 177.4908,
        "meta_arg_of_pericenter": 269.2783,
        "meta_mean_anomaly": 165.3925,
        "meta_ephemeris_type": 0,
        "meta_classification_type": "U",
        "meta_norad_cat_id": 66806,
        "meta_element_set_no": 999,
        "meta_rev_at_epoch": 474,
        "meta_bstar": -0.00146,
        "meta_mean_motion_dot": -0.00085155,
        "meta_mean_motion_ddot": 0,
        "tle_line1": "1 66806U 25278R   25359.16668980 -.00085155  00000+0 -14600-2 0  9996",
        "tle_line2": "2 66806  43.0002 177.4908 0002184 269.2783 165.3925 15.50605431  4741"
      },
      "geometry": {
        "type": "Point",
        "coordinates": [
          167.53701875755723,
          -7.87545200585875
        ]
      }
    }
  ]
}